[{"OBJECT_NAME":"STARLINK-32842","OBJECT_ID":"2025-018S","EPOCH":"2026-03-09T21:58:02.877312","MEAN_MOTION":15.30217658,"ECCENTRICITY":0.00019145,"INCLINATION":53.162,"RA_OF_ASC_NODE":308.4976,"ARG_OF_PERICENTER":157.6694,"MEAN_ANOMALY":202.4391,"EPHEMERIS_TYPE":0,"CLASSIFICATION_TYPE":"U","NORAD_CAT_ID":62822,"ELEMENT_SET_NO":999,"REV_AT_EPOCH":6321,"BSTAR":0.0011642878,"MEAN_MOTION_DOT":0.00034302,"MEAN_MOTION_DDOT":0},{"OBJECT_NAME":"GEOSCAN 5 (RS92S5)","OBJECT_ID":"2025-155R","EPOCH":"2026-03-09T22:01:07.273920","MEAN_MOTION":15.30265233,"ECCENTRICITY":0.00070849,"INCLINATION":97.4462,"RA_OF_ASC_NODE":37.7456,"ARG_OF_PERICENTER":154.5846,"MEAN_ANOMALY":205.5745,"EPHEMERIS_TYPE":0,"CLASSIFICATION_TYPE":"U","NORAD_CAT_ID":64891,"ELEMENT_SET_NO":999,"REV_AT_EPOCH":6562,"BSTAR":0.00068639307,"MEAN_MOTION_DOT":0.00020065,"MEAN_MOTION_DDOT":0}]
